{"type": "FeatureCollection", "features": [ {"type": "Feature", "properties": {"norad_id": 31566, "name": "FENGYUN 1C DEB", "group": "fengyun-1c-debris", "lat": 30.152305304503454, "lon": -125.5326674550506, "alt_km": 781.1271587726333, "timestamp": "2025-12-16T03:53:27.339471+00:00", "meta": {"OBJECT_NAME": "FENGYUN 1C DEB", "OBJECT_ID": "1999-025BZH", "EPOCH": "2025-12-14T10:02:47.203296", "MEAN_MOTION": 14.3742112, "ECCENTRICITY": 0.00229291, "INCLINATION": 98.9495, "RA_OF_ASC_NODE": 47.4017, "ARG_OF_PERICENTER": 350.1251, "MEAN_ANOMALY": 141.9807, "EPHEMERIS_TYPE": 0, "CLASSIFICATION_TYPE": "U", "NORAD_CAT_ID": 31566, "ELEMENT_SET_NO": 999, "REV_AT_EPOCH": 96415, "BSTAR": 0.0021792216, "MEAN_MOTION_DOT": 6.493e-05, "MEAN_MOTION_DDOT": 0}, "tle": {"line1": "1 31566U 99025BZH 25348.41860189  .00006493  00000+0  21792-2 0  9999", "line2": "2 31566  98.9495  47.4017 0022929 350.1251 141.9807 14.37421120964151"}}, "geometry": {"type": "Point", "coordinates": [-125.5326674550506, 30.152305304503454]}}, {"type": "Feature", "properties": {"norad_id": 31567, "name": "FENGYUN 1C DEB", "group": "fengyun-1c-debris", "lat": -65.4893201486182, "lon": 9.34675770166835, "alt_km": 839.48639700701, "timestamp": "2025-12-16T03:53:27.339481+00:00", "meta": {"OBJECT_NAME": "FENGYUN 1C DEB", "OBJECT_ID": "1999-025BZJ", "EPOCH": "2025-12-13T10:54:10.153152", "MEAN_MOTION": 13.92889885, "ECCENTRICITY": 0.01871013, "INCLINATION": 102.3178, "RA_OF_ASC_NODE": 214.3886, "ARG_OF_PERICENTER": 306.9159, "MEAN_ANOMALY": 51.4974, "EPHEMERIS_TYPE": 0, "CLASSIFICATION_TYPE": "U", "NORAD_CAT_ID": 31567, "ELEMENT_SET_NO": 999, "REV_AT_EPOCH": 67419, "BSTAR": 0.0045185427, "MEAN_MOTION_DOT": 6.703e-05, "MEAN_MOTION_DDOT": 0}, "tle": {"line1": "1 31567U 99025BZJ 25347.45428418  .00006703  00000+0  45185-2 0  9994", "line2": "2 31567 102.3178 214.3886 0187101 306.9159  51.4974 13.92889885674197"}}, "geometry": {"type": "Point", "coordinates": [9.34675770166835, -65.4893201486182]}}, {"type": "Feature", "properties": {"norad_id": 31568, "name": "FENGYUN 1C DEB", "group": "fengyun-1c-debris", "lat": -15.682249204472521, "lon": 49.93690362088037, "alt_km": 877.0502484420813, "timestamp": "2025-12-16T03:53:27.339492+00:00", "meta": {"OBJECT_NAME": "FENGYUN 1C DEB", "OBJECT_ID": "1999-025BZK", "EPOCH": "2025-12-14T09:54:31.332096", "MEAN_MOTION": 14.03360807, "ECCENTRICITY": 0.01225862, "INCLINATION": 102.0486, "RA_OF_ASC_NODE": 231.0651, "ARG_OF_PERICENTER": 115.7832, "MEAN_ANOMALY": 245.6031, "EPHEMERIS_TYPE": 0, "CLASSIFICATION_TYPE": "U", "NORAD_CAT_ID": 31568, "ELEMENT_SET_NO": 999, "REV_AT_EPOCH": 94603, "BSTAR": 0.0027361882, "MEAN_MOTION_DOT": 4.505e-05, "MEAN_MOTION_DDOT": 0}, "tle": {"line1": "1 31568U 99025BZK 25348.41286264  .00004505  00000+0  27362-2 0  9998", "line2": "2 31568 102.0486 231.0651 0122586 115.7832 245.6031 14.03360807946030"}}, "geometry": {"type": "Point", "coordinates": [49.93690362088037, -15.682249204472521]}}, {"type": "Feature", "properties": {"norad_id": 31569, "name": "FENGYUN 1C DEB", "group": "fengyun-1c-debris", "lat": -74.58801043895046, "lon": -157.0426740355895, "alt_km": 890.0296732616425, "timestamp": "2025-12-16T03:53:27.339502+00:00", "meta": {"OBJECT_NAME": "FENGYUN 1C DEB", "OBJECT_ID": "1999-025BZL", "EPOCH": "2025-12-14T09:23:40.581024", "MEAN_MOTION": 13.95543214, "ECCENTRICITY": 0.01738081, "INCLINATION": 102.6152, "RA_OF_ASC_NODE": 146.215, "ARG_OF_PERICENTER": 2.1272, "MEAN_ANOMALY": 27.1127, "EPHEMERIS_TYPE": 0, "CLASSIFICATION_TYPE": "U", "NORAD_CAT_ID": 31569, "ELEMENT_SET_NO": 999, "REV_AT_EPOCH": 93702, "BSTAR": 0.0025487053, "MEAN_MOTION_DOT": 3.86e-05, "MEAN_MOTION_DDOT": 0}, "tle": {"line1": "1 31569U 99025BZL 25348.39144191  .00003860  00000+0  25487-2 0  9997", "line2": "2 31569 102.6152 146.2150 0173808   2.1272  27.1127 13.95543214937021"}}, "geometry": {"type": "Point", "coordinates": [-157.0426740355895, -74.58801043895046]}}, {"type": "Feature", "properties": {"norad_id": 31570, "name": "FENGYUN 1C DEB", "group": "fengyun-1c-debris", "lat": 13.220708396986948, "lon": -146.43530481601522, "alt_km": 734.7104398368292, "timestamp": "2025-12-16T03:53:27.339512+00:00", "meta": {"OBJECT_NAME": "FENGYUN 1C DEB", "OBJECT_ID": "1999-025BZM", "EPOCH": "2025-12-15T08:34:11.891712", "MEAN_MOTION": 14.25271868, "ECCENTRICITY": 0.01546818, "INCLINATION": 102.5686, "RA_OF_ASC_NODE": 29.4114, "ARG_OF_PERICENTER": 217.4621, "MEAN_ANOMALY": 141.5682, "EPHEMERIS_TYPE": 0, "CLASSIFICATION_TYPE": "U", "NORAD_CAT_ID": 31570, "ELEMENT_SET_NO": 999, "REV_AT_EPOCH": 63404, "BSTAR": 0.001911926, "MEAN_MOTION_DOT": 5.022e-05, "MEAN_MOTION_DDOT": 0}, "tle": {"line1": "1 31570U 99025BZM 25349.35708208  .00005022  00000+0  19119-2 0  9998", "line2": "2 31570 102.5686  29.4114 0154681 217.4621 141.5682 14.25271868634043"}}, "geometry": {"type": "Point", "coordinates": [-146.43530481601522, 13.220708396986948]}}, {"type": "Feature", "properties": {"norad_id": 31608, "name": "FENGYUN 1C DEB", "group": "fengyun-1c-debris", "lat": -71.93531977812985, "lon": 135.35030274699827, "alt_km": 635.2944926311693, "timestamp": "2025-12-16T03:53:27.339523+00:00", "meta": {"OBJECT_NAME": "FENGYUN 1C DEB", "OBJECT_ID": "1999-025BZN", "EPOCH": "2025-12-13T01:52:34.871232", "MEAN_MOTION": 14.85857618, "ECCENTRICITY": 0.01461529, "INCLINATION": 98.3792, "RA_OF_ASC_NODE": 105.2371, "ARG_OF_PERICENTER": 36.6452, "MEAN_ANOMALY": 324.465, "EPHEMERIS_TYPE": 0, "CLASSIFICATION_TYPE": "U", "NORAD_CAT_ID": 31608, "ELEMENT_SET_NO": 999, "REV_AT_EPOCH": 98638, "BSTAR": 0.0009356671, "MEAN_MOTION_DOT": 9.832e-05, "MEAN_MOTION_DDOT": 0}, "tle": {"line1": "1 31608U 99025BZN 25347.07818138  .00009832  00000+0  93567-3 0  9994", "line2": "2 31608  98.3792 105.2371 0146152  36.6452 324.4650 14.85857618986383"}}, "geometry": {"type": "Point", "coordinates": [135.35030274699827, -71.93531977812985]}}, {"type": "Feature", "properties": {"norad_id": 31609, "name": "FENGYUN 1C DEB", "group": "fengyun-1c-debris", "lat": -21.44577751771874, "lon": 22.460538976755377, "alt_km": 784.0894142320849, "timestamp": "2025-12-16T03:53:27.339533+00:00", "meta": {"OBJECT_NAME": "FENGYUN 1C DEB", "OBJECT_ID": "1999-025BZP", "EPOCH": "2025-12-15T00:59:33.000288", "MEAN_MOTION": 14.15782518, "ECCENTRICITY": 0.00948096, "INCLINATION": 99.2167, "RA_OF_ASC_NODE": 17.645, "ARG_OF_PERICENTER": 313.866, "MEAN_ANOMALY": 74.7981, "EPHEMERIS_TYPE": 0, "CLASSIFICATION_TYPE": "U", "NORAD_CAT_ID": 31609, "ELEMENT_SET_NO": 999, "REV_AT_EPOCH": 66117, "BSTAR": 0.0017564085, "MEAN_MOTION_DOT": 3.557e-05, "MEAN_MOTION_DDOT": 0}, "tle": {"line1": "1 31609U 99025BZP 25349.04135417  .00003557  00000+0  17564-2 0  9996", "line2": "2 31609  99.2167  17.6450 0094809 313.8660  74.7981 14.15782518661174"}}, "geometry": {"type": "Point", "coordinates": [22.460538976755377, -21.44577751771874]}}, {"type": "Feature", "properties": {"norad_id": 31612, "name": "FENGYUN 1C DEB", "group": "fengyun-1c-debris", "lat": -39.49813328258114, "lon": 78.71952887591927, "alt_km": 372.8606803870025, "timestamp": "2025-12-16T03:53:27.339543+00:00", "meta": {"OBJECT_NAME": "FENGYUN 1C DEB", "OBJECT_ID": "1999-025BZS", "EPOCH": "2025-12-15T05:34:20.315712", "MEAN_MOTION": 15.71781669, "ECCENTRICITY": 0.00321406, "INCLINATION": 100.3339, "RA_OF_ASC_NODE": 265.9962, "ARG_OF_PERICENTER": 93.9662, "MEAN_ANOMALY": 266.5266, "EPHEMERIS_TYPE": 0, "CLASSIFICATION_TYPE": "U", "NORAD_CAT_ID": 31612, "ELEMENT_SET_NO": 999, "REV_AT_EPOCH": 44, "BSTAR": 0.0014945855, "MEAN_MOTION_DOT": 0.00203446, "MEAN_MOTION_DDOT": 0}, "tle": {"line1": "1 31612U 99025BZS 25349.23217958  .00203446  00000+0  14946-2 0  9992", "line2": "2 31612 100.3339 265.9962 0032140  93.9662 266.5266 15.71781669   440"}}, "geometry": {"type": "Point", "coordinates": [78.71952887591927, -39.49813328258114]}}, {"type": "Feature", "properties": {"norad_id": 31613, "name": "FENGYUN 1C DEB", "group": "fengyun-1c-debris", "lat": 41.37052021587571, "lon": 169.25777379531215, "alt_km": 868.4351826304428, "timestamp": "2025-12-16T03:53:27.339554+00:00", "meta": {"OBJECT_NAME": "FENGYUN 1C DEB", "OBJECT_ID": "1999-025BZT", "EPOCH": "2025-12-15T06:33:18.914976", "MEAN_MOTION": 13.63449402, "ECCENTRICITY": 0.03427026, "INCLINATION": 98.4243, "RA_OF_ASC_NODE": 175.9853, "ARG_OF_PERICENTER": 99.3256, "MEAN_ANOMALY": 264.6806, "EPHEMERIS_TYPE": 0, "CLASSIFICATION_TYPE": "U", "NORAD_CAT_ID": 31613, "ELEMENT_SET_NO": 999, "REV_AT_EPOCH": 91796, "BSTAR": 0.0011396716, "MEAN_MOTION_DOT": 1.304e-05, "MEAN_MOTION_DDOT": 0}, "tle": {"line1": "1 31613U 99025BZT 25349.27313559  .00001304  00000+0  11397-2 0  9997", "line2": "2 31613  98.4243 175.9853 0342702  99.3256 264.6806 13.63449402917966"}}, "geometry": {"type": "Point", "coordinates": [169.25777379531215, 41.37052021587571]}}, {"type": "Feature", "properties": {"norad_id": 31614, "name": "FENGYUN 1C DEB", "group": "fengyun-1c-debris", "lat": -57.14310319477241, "lon": -89.37913491058642, "alt_km": 571.6228668617014, "timestamp": "2025-12-16T03:53:27.339564+00:00", "meta": {"OBJECT_NAME": "FENGYUN 1C DEB", "OBJECT_ID": "1999-025BZU", "EPOCH": "2025-12-14T17:07:28.618752", "MEAN_MOTION": 14.97833083, "ECCENTRICITY": 0.00206382, "INCLINATION": 98.9758, "RA_OF_ASC_NODE": 254.7917, "ARG_OF_PERICENTER": 0.6597, "MEAN_ANOMALY": 54.3965, "EPHEMERIS_TYPE": 0, "CLASSIFICATION_TYPE": "U", "NORAD_CAT_ID": 31614, "ELEMENT_SET_NO": 999, "REV_AT_EPOCH": 96459, "BSTAR": 0.0057369619, "MEAN_MOTION_DOT": 0.00068294, "MEAN_MOTION_DDOT": 0}, "tle": {"line1": "1 31614U 99025BZU 25348.71352568  .00068294  00000+0  57370-2 0  9991", "line2": "2 31614  98.9758 254.7917 0020638   0.6597  54.3965 14.97833083964595"}}, "geometry": {"type": "Point", "coordinates": [-89.37913491058642, -57.14310319477241]}}]}